[
	{
		"id" : 1,
		"name_cn" : "俯瞰故宫",
		"name_en" : "Bird's-Eye View of the Forbidden City",
		"scname":"scene_1jingshangongyuan",
		"longitude" : "116.39662988282574",
		"latitude" : "39.92483724506461",
		"sound_en" : "gu_gong.mp3",
        "sound_cn" : "scene_1jingshangongyuan.mp3",
		"detlaX" : "445",
		"detlaY" : "56"
	},
	{
		"id" : 2,
		"name_cn" : "午门",
		"name_en" : "The Meridian Gate",
		"scname":"scene_001-wumen-2",
		"longitude" : "116.39725524355339",
		"latitude" : "39.913293946423764",
		"sound_en" : "wu_men.mp3",
        "sound_cn" : "scene_001-wumen-2.mp3",
		"detlaX" : "449",
		"detlaY" : "1299"
	},	
	{
		"id" : 3,
		"name_cn" : "内金水河",
		"name_en" : "Inner Golden Water River",
		"scname":"scene_002-jishuiqiao",
		"longitude" : "116.39719925654501",
		"latitude" : "39.914462827639426",
		"sound_en" : "nei_jin_shui_he.mp3",
        "sound_cn" : "scene_002-jishuiqiao.mp3",
		"detlaX" : "449",
		"detlaY" : "1136"
	},
	{
		"id" : 4,
		"name_cn" : "武英门",
		"name_en" : "The Gate of Military Glory",
		"scname":"scene_003-yingwudian-1",
		"longitude" : "116.3946023",
		"latitude" : "39.9148960",
		"sound_en" : "wu_ying_men.mp3",
        "sound_cn" : "scene_003-yingwudian-1.mp3",
		"detlaX" : "228",
		"detlaY" : "1129"
	},	
	{
		"id" : 5,
		"name_cn" : "武英殿",
		"name_en" : "The Hall of Military Glory",
		"scname":"scene_003-yingwudian-2",
		"longitude" : "116.3945835",
		"latitude" : "39.9155769",
		"sound_en" : "wu_ying_dian.mp3",
        "sound_cn" : "scene_003-yingwudian-2.mp3",
		"detlaX" : "226",
		"detlaY" : "1022"
	},	
	{
		"id" : 6,
		"name_cn" : "太和门",
		"name_en" : "The Gate of Supreme Harmony",
		"scname":"scene_004-taihemen",
		"longitude" : "116.39719014692203",
		"latitude" : "39.9149166420263",
		"sound_en" : "tai_he_men.mp3",
        "sound_cn" : "scene_004-taihemen.mp3",
		"detlaX" : "450",
		"detlaY" : "1054"
	},	
	{
		"id" : 7,
		"name_cn" : "太和殿前广场",
		"name_en" : "The Square before the Hall of Supreme Harmony",
		"scname":"scene_005-taihedian-1",
		"longitude" : "116.3971100034702",
		"latitude" : "39.91630258981495",
		"sound_en" : "tai_he_men_qian_guang_chang.mp3",
        "sound_cn" : "scene_005-taihedian-1.mp3",
		"detlaX" : "448",
		"detlaY" : "963"
	},	
	{
		"id" : 8,
		"name_cn" : "太和殿",
		"name_en" : "The Hall of Supreme Harmony",
		"scname":"scene_005-taihedian-2",
		"longitude" : "116.39712562356422",
		"latitude" : "39.91681271866612",
		"sound_en" : "tai_he_dian.mp3",
        "sound_cn" : "scene_005-taihedian-2.mp3",
		"detlaX" : "450",
		"detlaY" : "868"
	},
	{
		"id" : 9,
		"name_cn" : "弘毅阁",
		"name_en" : "The Pavilion of Expanding Justice",
		"scname":"scene_005-taihedian-hongyige",
		"longitude" : "116.39630586773576",
		"latitude" : "39.91631135743863",
		"sound_en" : "tai_he_dian_liang_xiang.mp3",
        "sound_cn" : "scene_005-taihedian-hongyige.mp3",
		"detlaX" : "358",
		"detlaY" : "939"
	},
	{
		"id" : 10,
		"name_cn" : "体仁阁",
		"name_en" : "The Pavilion of Manifesting Benevolence",
		"scname":"scene_005-taihedian-tirenmen",
		"longitude" : "116.3980619302049",
		"latitude" : "39.91632276531071",
		"sound_en" : "ti_ren_ge.mp3",
        "sound_cn" : "scene_005-taihedian-tirenmen.mp3",
		"detlaX" : "540",
		"detlaY" : "948"
	},	
	{
		"id" : 11,
		"name_cn" : "中和殿",
		"name_en" : "The Hall of Central Harmony",
		"scname":"scene_006-zhonghedian-1",
		"longitude" : "116.39706886832593",
		"latitude" : "39.91759075253236",
		"sound_en" : "zhong_he_dian.mp3",
        "sound_cn" : "scene_006-zhonghedian-1.mp3",
		"detlaX" : "453",
		"detlaY" : "771"
	},
	{
		"id" : 12,
		"name_cn" : "保和殿",
		"name_en" : "The Hall of Preserving Harmony",
		"scname":"scene_007-baohedian",
		"longitude" : "116.39702101922568",
		"latitude" : "39.91813492103026",
		"sound_en" : "bao_he_dian.mp3",
        "sound_cn" : "scene_007-baohedian.mp3",
		"detlaX" : "452",
		"detlaY" : "731"
	},	
	{
		"id" : 13,
		"name_cn" : "乾清门",
		"name_en" : "The Gate of Heavenly Purity",
		"scname":"scene_008-qianqingmen",
		"longitude" : "116.39697713870149",
		"latitude" : "39.91898047376139",
		"sound_en" : "qian_qing_men.mp3",
        "sound_cn" : "scene_008-qianqingmen.mp3",
		"detlaX" : "450",
		"detlaY" : "626"
	},	
	{
		"id" : 14,
		"name_cn" : "乾清宫",
		"name_en" : "The Palace of Heavenly Purity",
		"scname":"scene_009-qianqinggong",
		"longitude" : "116.39694373927492",
		"latitude" : "39.919707636759306",
		"sound_en" : "qian_qing_gong.mp3",
        "sound_cn" : "scene_009-qianqinggong.mp3",
		"detlaX" : "448",
		"detlaY" : "520"
	},	
	{
		"id" : 15,
		"name_cn" : "交泰殿",
		"name_en" : "The Hall of Union and Peace",
		"scname":"scene_010-jiaotaidian",
		"longitude" : "116.39693821982411",
		"latitude" : "39.92031285873053",
		"sound_en" : "jiao_tai_dian.mp3",
        "sound_cn" : "scene_010-jiaotaidian.mp3",
		"detlaX" : "452",
		"detlaY" : "452"
	},	
	{
		"id" : 16,
		"name_cn" : "坤宁宫",
		"name_en" : "The Palace of Earthly Tranquility",
		"scname":"scene_011-kunninggong",
		"longitude" : "116.39690183819387",
		"latitude" : "39.9206237030634",
		"sound_en" : "kun_ning_gong.mp3",
        "sound_cn" : "scene_011-kunninggong.mp3",
		"detlaX" : "452",
		"detlaY" : "412"
	},	
	{
		"id" : 17,
		"name_cn" : "坤宁门",
		"name_en" : "The Gate of Earthly Tranquility",
		"scname":"scene_012-kunningmen",
		"longitude" : "116.39691222911048",
		"latitude" : "39.92099744356169",
		"sound_en" : "yu_hua_yuan.mp3",
        "sound_cn" : "scene_012-kunningmen.mp3",
		"detlaX" : "452",
		"detlaY" : "367"
	},
	{
		"id" : 18,
		"name_cn" : "天一门",
		"name_en" : "Tianyi Gate",
		"scname":"scene_014-tianyimen",
		"longitude" : "116.39666053325928",
		"latitude" : "39.92140828190633",
		"sound_en" : "san_guai_shi.mp3",
        "sound_cn" : "scene_014-tianyimen.mp3",
		"detlaX" : "447",
		"detlaY" : "339"
	},	
	{
		"id" : 19,
		"name_cn" : "钦安殿",
		"name_en" : "The Hall of Imperial Peace",
		"scname":"scene_015-qinandian",
		"longitude" : "116.39679890573498",
		"latitude" : "39.92155204866561",
		"sound_en" : "qin_an_dian.mp3",
        "sound_cn" : "scene_015-qinandian.mp3",
		"detlaX" : "447",
		"detlaY" : "303"
	},	
	{
		"id" : 20,
		"name_cn" : "堆秀山",
		"name_en" : "The Hill of Accumulating Elegance",
		"scname":"scene_016-duixiushan",
		"longitude" : "116.39724272506186",
		"latitude" : "39.921760439337454",
		"sound_en" : "dui_xiu_shan.mp3",
        "sound_cn" : "scene_016-duixiushan.mp3",
		"detlaX" : "496",
		"detlaY" : "285"
	},	
	{
		"id" : 31,
		"name_cn" : "景运门前",
		"name_en" : "Before the Gate of Prospering Fortune",
		"scname":"scene_801-jingyunmen-1",
		"longitude" : "116.39781832695007",
		"latitude" : "39.91889930298702",
		"sound_en" : "jing_yun_men.mp3",
        "sound_cn" : "scene_801-jingyunmen-1.mp3",
		"detlaX" : "530",
		"detlaY" : "642"
	},	
	{
		"id" : 21,
		"name_cn" : "景运门",
		"name_en" : "The Gate of Prospering Fortune",
		"scname":"scene_801-jingyunmen-2",
		"longitude" : "116.39826625585556",
		"latitude" : "39.918761475161226",
		"sound_en" : "jing_yun_men_in.mp3",
        "sound_cn" : "scene_801-jingyunmen-2.mp3",
		"detlaX" : "560",
		"detlaY" : "650"
	},
	{
		"id" : 22,
		"name_cn" : "钟表馆",
		"name_en" : "The Gallery of Clock",
		"scname":"scene_802-zhongbiaoguan-2",
		"longitude" : "116.3991379737854",
		"latitude" : "39.91985380449598",
		"sound_en" : "feng_xian_dian.mp3",
        "sound_cn" : "scene_802-zhongbiaoguan-2.mp3",
		"detlaX" : "635",
		"detlaY" : "606"
	},	
	{
		"id" : 23,
		"name_cn" : "奉先殿",
		"name_en" : "The Hall of Ancestral Worship",
		"scname":"scene_fengxiandian",
		"longitude" : "116.39919966459274",
		"latitude" : "39.919639865659434",
		"sound_en" : "feng_xian_dian_in.mp3",
        "sound_cn" : "scene_fengxiandian.mp3",
		"detlaX" : "632",
		"detlaY" : "537"
	},
	{
		"id" : 24,
		"name_cn" : "九龙壁",
		"name_en" : "The Nine Dragon Screen",
		"scname":"scene_803-zhenbaoguan-2",
		"longitude" : "116.40046030282974",
		"latitude" : "39.91840970437824",
		"sound_en" : "jiu_long_bi.mp3",
        "sound_cn" : "scene_803-zhenbaoguan-2.mp3",
		"detlaX" : "744",
		"detlaY" : "676"
	},	
	{
		"id" : 27,
		"name_cn" : "珍宝馆",
		"name_en" : "The Gallery of Treasure",
		"scname":"scene_803-zhenbaoguan-3",
		"longitude" : "116.39995604753494",
		"latitude" : "39.91970363595947",
		"sound_en" : "zhen_bao_guan.mp3",
        "sound_cn" : "scene_803-zhenbaoguan-3.mp3",
		"detlaX" : "693",
		"detlaY" : "555"
	},	
	{
		"id" : 25,
		"name_cn" : "宁寿门",
		"name_en" : "The Palace of Tranquil Longevity",
		"scname":"scene_803-zhenbaoguan-4",
		"longitude" : "116.40047371387482",
		"latitude" : "39.9193806696351",
		"sound_en" : "ning_shou_gong.mp3",
        "sound_cn" : "scene_803-zhenbaoguan-4.mp3",
		"detlaX" : "747",
		"detlaY" : "592"
	},	
	{
		"id" : 26,
		"name_cn" : "皇极殿",
		"name_en" : "The Hall of Imperial Supremacy",
		"scname":"scene_803-zhenbaoguan-5",
		"longitude" : "116.40043815524528",
		"latitude" : "39.91958329208486",
		"sound_en" : "huang_ji_dian.mp3",
        "sound_cn" : "scene_803-zhenbaoguan-5.mp3",
		"detlaX" : "747",
		"detlaY" : "519"
	},	
	{
		"id" : 28,
		"name_cn" : "畅音阁",
		"name_en" : "The Tower of Pleasant Sounds",
		"scname":"scene_803-zhenbaoguan-6",
		"longitude" : "116.40068040221375",
		"latitude" : "39.9208491098396",
		"sound_en" : "chang_yin_ge.mp3",
        "sound_cn" : "scene_803-zhenbaoguan-6.mp3",
		"detlaX" : "745",
		"detlaY" : "485"
	},	
	{
		"id" : 29,
		"name_cn" : "乐寿堂",
		"name_en" : "The Chamber of Joyful Longevity",
		"scname":"scene_803-zhenbaoguan-7",
		"longitude" : "116.40038163495534",
		"latitude" : "39.92106176210355",
		"sound_en" : "le_shou_tang.mp3",
        "sound_cn" : "scene_803-zhenbaoguan-7.mp3",
		"detlaX" : "747",
		"detlaY" : "369"
	},	
	{
		"id" : 30,
		"name_cn" : "珍妃井",
		"name_en" : "The Well of Concubine Zhen",
		"scname":"scene_803-zhenbaoguan-11",
		"longitude" : "116.4000831227058",
		"latitude" : "39.92192989742761",
		"sound_en" : "zhen_fei_jing.mp3",
        "sound_cn" : "scene_803-zhenbaoguan-11.mp3",
		"detlaX" : "726",
		"detlaY" : "310"
	},
	{
		"id" : 35,
		"name_cn" : "景阳宫",
		"name_en" : "The Palace of Revering Yang",
		"scname":"scene_805-jingyanggong-1",
		"longitude" : "116.39848230449743",
		"latitude" : "39.92117902374304",
		"sound_en" : "jing_yang_gong.mp3",
        "sound_cn" : "scene_805-jingyanggong-1.mp3",
		"detlaX" : "600",
		"detlaY" : "368"
	},	
	{
		"id" : 36,
		"name_cn" : "御书房",
		"name_en" : "The Imperial Study",
		"scname":"scene_805-jingyanggong-2",
		"longitude" : "116.39860421419144",
		"latitude" : "39.92136575702709",
		"sound_en" : "yu_shu_fang.mp3",
        "sound_cn" : "scene_805-jingyanggong-2.mp3",
		"detlaX" : "605",
		"detlaY" : "319"
	},	
	{
		"id" : 37,
		"name_cn" : "延禧宫",
		"name_en" : "The Palace of Extending Happiness",
		"scname":"scene_806-yanxigong",
		"longitude" : "116.39847010374069",
		"latitude" : "39.920115055822606",
		"sound_en" : "yan_xi_gong.mp3",
        "sound_cn" : "scene_806-yanxigong.mp3",
		"detlaX" : "600",
		"detlaY" : "462"
	},		
	{
		"id" : 32,
		"name_cn" : "景仁宫",
		"name_en" : "The Palace of Revering Benevolence",
		"scname":"scene_807-jingrengong-2",
		"longitude" : "116.39804500011105",
		"latitude" : "39.9201763960457",
		"sound_en" : "jing_ren_gong.mp3",
        "sound_cn" : "scene_807-jingrengong-2.mp3",
		"detlaX" : "544",
		"detlaY" : "473"
	},	{
		"id" : 33,
		"name_cn" : "承乾门",
		"name_en" : "The Gate of Obeying the Heaven",
		"scname":"scene_808-chengqianmen",
		"longitude" : "116.39798998832703",
		"latitude" : "39.92052235905214",
		"sound_en" : "cheng_qian_gong.mp3",
        "sound_cn" : "scene_808-chengqianmen.mp3",
		"detlaX" : "544",
		"detlaY" : "441"
	},
	{
		"id" : 34,
		"name_cn" : "钟粹宫",
		"name_en" : "The Palace of Cherishing Essence",
		"scname":"scene_809-zhongcuigong",
		"longitude" : "116.39795243740082",
		"latitude" : "39.92105925506222",
		"sound_en" : "zhong_cui_gong.mp3",
        "sound_cn" : "scene_809-zhongcuigong.mp3",
		"detlaX" : "544",
		"detlaY" : "368"
	},	
	{
		"id" : 38,
		"name_cn" : "军机处",
		"name_en" : "The Department of Military Affairs",
		"scname":"scene_801-junjichu",
		"longitude" : "116.39617553674091",
		"latitude" : "39.91905352104527",
		"sound_en" : "jun_ji_chu.mp3",
        "sound_cn" : "scene_801-junjichu.mp3",
		"detlaX" : "361",
		"detlaY" : "626"
	},	
	{
		"id" : 39,
		"name_cn" : "养心门",
		"name_en" : "The Gate of Mental Cultivation",
		"scname":"scene_803-yangxinmen",
		"longitude" : "116.39571094614125",
		"latitude" : "39.91946403508383",
		"sound_en" : "yang_xin_men.mp3",
		"sound_cn" : "scene_803-yangxinmen.mp3",
		"detlaX" : "337",
		"detlaY" : "560"
	},	
	{
		"id" : 40,
		"name_cn" : "养心殿",
		"name_en" : "The Hall of Mental Cultivation",
		"scname":"scene_804-yangxindian-1",
		"longitude" : "116.39566592734046",
		"latitude" : "39.919612186195344",
		"sound_en" : "yang_xin_dian.mp3",
        "sound_cn" : "scene_804-yangxindian-1.mp3",
		"detlaX" : "337",
		"detlaY" : "540"
	},	
	{
		"id" : 41,
		"name_cn" : "太极殿",
		"name_en" : "The Hall of Ultimate Supreme",
		"scname":"scene_804-yangxindian-2",
		"longitude" : "116.39566719532013",
		"latitude" : "39.919602837716006",
		"sound_en" : "tai_ji_dian.mp3",
        "sound_cn" : "scene_804-yangxindian-2.mp3",
		"detlaX" : "346",
		"detlaY" : "516"
	},	
	{
		"id" : 42,
		"name_cn" : "长春宫",
		"name_en" : "The Palace of Everlasting Spring",
		"scname":"scene_805-changchungong",
		"longitude" : "116.39525015769254",
		"latitude" : "39.92053945979666",
		"sound_en" : "chang_chun_gong_yu_ti_yuan_dian.mp3",
        "sound_cn" : "scene_805-changchungong.mp3",
		"detlaX" : "299",
		"detlaY" : "415"
	},	
	{
		"id" : 43,
		"name_cn" : "翊坤宫",
		"name_en" : "The Palace of Assisting the Earth",
		"scname":"scene_806-yikungong-1",
		"longitude" : "116.39589533115127",
		"latitude" : "39.92066975574349",
		"sound_en" : "yi_kun_gong_he_ti_he_dian.mp3",
        "sound_cn" : "scene_806-yikungong-1.mp3",
		"detlaX" : "352",
		"detlaY" : "423"
	},
	{
		"id" : 44,
		"name_cn" : "储秀宫",
		"name_en" : "The Palace of Concentrated Beauty",
		"scname":"scene_806-yikungong-2",
		"longitude" : "116.39575570821762",
		"latitude" : "39.92079595026529",
		"sound_en" : "chu_xiu_gong.mp3",
        "sound_cn" : "scene_806-yikungong-2.mp3",
		"detlaX" : "349",
		"detlaY" : "385"
	},
	{
		"id" : 45,
		"name_cn" : "神武门",
		"name_en" : "The Gate of Divine Might",
		"scname":"scene_017-shenwumen-2",
		"longitude" : "116.39670739324738",
		"latitude" : "39.92268058772608",
		"sound_en" : "shen_wu_men.mp3",
        "sound_cn" : "scene_017-shenwumen-2.mp3",
		"detlaX" : "445",
		"detlaY" : "177"
	}
]